{"type":"FeatureCollection","features":[{"type":"Feature","geometry":{"type":"Polygon","coordinates":[[[-120.84013839571769,44.356729219949081],[-120.84106747111376,44.356544214582676],[-120.84189020304819,44.356478732240411],[-120.84308379187127,44.356501275002636],[-120.84485056872767,44.356719175720045],[-120.84564315230286,44.356770138057357],[-120.84700689012556,44.356665303733458],[-120.84813032052494,44.356654958898439],[-120.84899280560565,44.356531655723806],[-120.84938756486733,44.356309512554688],[-120.84964669379252,44.356021795125727],[-120.84980509013332,44.355700671165842],[-120.85000585820943,44.354799656492041],[-120.8501699974798,44.354600179356844],[-120.85050493972339,44.354426422668546],[-120.85257679433174,44.353655123771524],[-120.85286717923891,44.353498528669348],[-120.85525524711549,44.351967872243613],[-120.85570918379489,44.351562258657317],[-120.85660187113373,44.350629202244683],[-120.85696162843871,44.350397372953033],[-120.85736176681236,44.350197809530286],[-120.85824182743158,44.349890206404794],[-120.85906391257899,44.349667037241346],[-120.86054471884952,44.349141096620365],[-120.86192501352127,44.348424196202465],[-120.86279403204901,44.347814751266249],[-120.86391342811446,44.347133457720744],[-120.86481296690397,44.34674064080523],[-120.86672530048082,44.346074135330269],[-120.86724552743826,44.345804756166949],[-120.86958606994473,44.344831093477318],[-120.8701855022591,44.344495656525893],[-120.87104925037106,44.343854542278365],[-120.87217456543594,44.343308320893954],[-120.87269402972369,44.343101923412327],[-120.87380556822532,44.34276249723586],[-120.87474574769665,44.342347848720614],[-120.87525906121967,44.342159333189962],[-120.87536433299117,44.342066759076893],[-120.8755114923061,44.34198373752379],[-120.87575312474446,44.341874517665161],[-120.87655950823904,44.341603675591479],[-120.8770424847566,44.341326817509334],[-120.8776149074253,44.340640725743036],[-120.87777834151819,44.340250732051004],[-120.87813265503257,44.339399797463187],[-120.87855708025822,44.338675218966493],[-120.87879641660275,44.338250904706172],[-120.87916914108885,44.337578960911756],[-120.87948759924697,44.33703105871534],[-120.87988711418983,44.336306010820422],[-120.8801249386697,44.335937732599668],[-120.88049018108779,44.335459273812795],[-120.88179707441765,44.33391249645075],[-120.88224234145623,44.333542627022098],[-120.88247076327002,44.33329477749313],[-120.88276415573678,44.333093148503515],[-120.88321020341131,44.332853831529064],[-120.88396233764588,44.332539156606366],[-120.88477984767357,44.332324721296771],[-120.8863634328907,44.332061432816857],[-120.88675087627274,44.331970667652094],[-120.88738937991205,44.331871625420995],[-120.88814582785663,44.331599779066764],[-120.88939022808714,44.330908188668452],[-120.89022959592229,44.33040561505824],[-120.89062858535068,44.330133597406366],[-120.89104629117803,44.329924977736859],[-120.89141246964064,44.329665332909222],[-120.89159319899771,44.329402261897272],[-120.89161517089124,44.329187491248831],[-120.89156434780573,44.329012364388689],[-120.89156200859274,44.329004827333414],[-120.89150036080804,44.328806250735369],[-120.89152123136702,44.32862220082054],[-120.89159953122214,44.328428962986024],[-120.89174878720492,44.328247281826883],[-120.89210399184805,44.327895214301158],[-120.89264978755342,44.327553762606136],[-120.89302900955398,44.327295195877802],[-120.89343717617132,44.327016885385753],[-120.89404622584911,44.326688685298819],[-120.89452130797196,44.326458086429867],[-120.89468569787233,44.326354642520272],[-120.8949746562548,44.326257505200722],[-120.89530530724629,44.32619187527667],[-120.89561876268657,44.326207898632077],[-120.89584536271701,44.326250400924209],[-120.89679480561553,44.326382046787806],[-120.89844776502711,44.326787649527958],[-120.89945755764472,44.327126580183716],[-120.9000577256793,44.326835007065682],[-120.90205655354325,44.326057104508024],[-120.90215198067759,44.326013928596701],[-120.90331443479123,44.325653062822205],[-120.90499816419624,44.325013227047315],[-120.90601808172543,44.324568272957428],[-120.90666857428052,44.324328111457213],[-120.90748542853805,44.324104494738805],[-120.9082005108604,44.324009554143053],[-120.9084558848277,44.323991722398844],[-120.90864434239116,44.324005126894306],[-120.90893636941865,44.324068087109126],[-120.90931134957444,44.324160705704493],[-120.90997919398758,44.324415897554644],[-120.91051030762794,44.32459712337554],[-120.91071191562887,44.324600812819448],[-120.91078885453631,44.324602218933826],[-120.91112658604884,44.324622692418664],[-120.91154491530698,44.324616051293447],[-120.91202343977402,44.324596220454637],[-120.91234228780094,44.324587757418165],[-120.91280142482749,44.324553276106947],[-120.91316512932983,44.324402711654209],[-120.91354873061739,44.324252509270778],[-120.91392928931111,44.324188002388617],[-120.91430985069975,44.324123494792872],[-120.91462970843308,44.324086460587395],[-120.91510215489889,44.324238008467141],[-120.91574861132344,44.324535652103556],[-120.91598433374556,44.324625707080578],[-120.91637872110476,44.324732950153987],[-120.91669504037415,44.324795889665694],[-120.91693480970665,44.3247716798952],[-120.91716243651145,44.324668642378171],[-120.91717761175151,44.324661772475622],[-120.91718706562156,44.324654249642208],[-120.91721272959093,44.324633830150816],[-120.91754636298914,44.324368365190828],[-120.91784108316588,44.323916396763536],[-120.91787246581032,44.323863979806937],[-120.91846301198989,44.323323700622836],[-120.91871634408655,44.323008711076042],[-120.91891802215603,44.322602748660884],[-120.91891654981727,44.322422663206041],[-120.91874846694277,44.322099995274307],[-120.91851643749477,44.321834682088692],[-120.91758950458066,44.320940000485209],[-120.91675365185317,44.320263045194338],[-120.91650752694007,44.320019977782728],[-120.91587905029594,44.319441327797414],[-120.91559537490561,44.319130051540704],[-120.91521002908978,44.318834925616109],[-120.91466926035672,44.318325391413573],[-120.91435994884485,44.31794161932519],[-120.91412792837998,44.31772131335677],[-120.91392117482916,44.317429442185215],[-120.91379211926217,44.317134488313961],[-120.91370745484328,44.317002400709129],[-120.91357240032684,44.316788364297174],[-120.91348001309144,44.316476073867051],[-120.91341281551492,44.315961678041155],[-120.91356098723114,44.315208132980153],[-120.91374955708402,44.314729916449991],[-120.91424467073939,44.314248293242457],[-120.91472841172323,44.31391050879467],[-120.91555573315047,44.313430440794853],[-120.91602671985392,44.313186950415883],[-120.916549669605,44.31300292284449],[-120.91723840523839,44.312695875340907],[-120.92020569782702,44.311088879633246],[-120.92075280327606,44.310774730106729],[-120.92124886914566,44.310396627662456],[-120.92258526674269,44.309610666112711],[-120.92273787883134,44.30948289735224],[-120.92297945826914,44.30934324201516],[-120.9232867692329,44.309317317264238],[-120.92395131413397,44.309360905294149],[-120.92517982765865,44.309500260395211],[-120.92579359708499,44.309628443731825],[-120.92650999993079,44.309645948793211],[-120.92758248507376,44.309476345792852],[-120.92865556669808,44.309378765269244],[-120.92943390209454,44.309194809322776],[-120.93032691642019,44.30891389053803],[-120.93047917816588,44.308840123670478],[-120.93088305083617,44.308541337178319],[-120.92912795207847,44.307532712938169],[-120.92842207748775,44.307038256780686],[-120.92784380049834,44.306703662413234],[-120.926777505646,44.305964078874105],[-120.92590386259116,44.305250490361409],[-120.92429898011525,44.304253522687056],[-120.92406696324366,44.304055741761033],[-120.92338621093822,44.303606725181247],[-120.92198743881943,44.302766521043146],[-120.92116686104502,44.302328453344536],[-120.92014052056156,44.301882131436216],[-120.91957729933631,44.301700820027108],[-120.91885808386532,44.301255578569233],[-120.91825460284399,44.300816940908625],[-120.91776578009055,44.300348880238218],[-120.91757089148797,44.299899679720411],[-120.91752731601017,44.299093117090841],[-120.91760825152232,44.297955710480608],[-120.91758231356683,44.297847202021536],[-120.91760474629609,44.297478487533326],[-120.91749755662146,44.296742789513971],[-120.91726112003866,44.295829175219126],[-120.91725915452481,44.295527197684684],[-120.9172011125777,44.295372724732502],[-120.91705867390959,44.294476868757272],[-120.9172673992625,44.293498093469275],[-120.91737945511105,44.293142835232793],[-120.91804505732924,44.291904412248314],[-120.91871845602577,44.291148487174326],[-120.91941290943595,44.290500133864121],[-120.91978043896476,44.290262104739163],[-120.91982910878852,44.29021756692719],[-120.92076965836576,44.289536952708161],[-120.9219660508308,44.288797964428603],[-120.92285596866365,44.288152426154589],[-120.92331228677685,44.287607035153989],[-120.92379205361388,44.286751464365018],[-120.92395606532354,44.286542872435341],[-120.92436251256539,44.286145121843994],[-120.92531579666004,44.285433192099696],[-120.92584846079264,44.284920686909771],[-120.92596332477476,44.284767527533418],[-120.92626633370662,44.284461325267799],[-120.92677435884754,44.283452235882486],[-120.92676521130302,44.283005441226145],[-120.92670761492026,44.282522035485158],[-120.92659025811322,44.282331771999523],[-120.92649587302465,44.282178752503157],[-120.92624825421319,44.281441781730521],[-120.92606514342232,44.280991826255871],[-120.92607456854627,44.280724020976244],[-120.92611786105478,44.280681438762485],[-120.92613078421844,44.280668726025702],[-120.92630640575481,44.280495984439959],[-120.92663388030341,44.28037687383808],[-120.9272111260269,44.280226567778413],[-120.92786292563072,44.280077612562607],[-120.92859053226479,44.279894296053733],[-120.92904476628652,44.279706019721324],[-120.9293480069837,44.279568597928112],[-120.93013365197164,44.278810351826195],[-120.93041114605448,44.278363925769177],[-120.9311277177836,44.277763658802883],[-120.93210816333917,44.276850184050552],[-120.93240842073132,44.276401360776617],[-120.9329353904433,44.27579765138622],[-120.93326881722898,44.275304000171452],[-120.93287004878616,44.274956092916923],[-120.93248953321159,44.274615548192955],[-120.9321876157328,44.274470536988332],[-120.93136689961787,44.273956011058175],[-120.93099365680385,44.273656654688928],[-120.93045315397212,44.273124688662257],[-120.92993682660131,44.272395090117101],[-120.92944454174078,44.271404838911714],[-120.92908356632027,44.271002162853513],[-120.9279803183704,44.270261917369567],[-120.92735080237546,44.269768834598764],[-120.92690152705411,44.269495094988109],[-120.92458127748989,44.268291577458484],[-120.92382305537265,44.267652090255751],[-120.92347497886134,44.267240626420175],[-120.92331951013006,44.266985716040239],[-120.92313974466528,44.266820393072429],[-120.92298447356337,44.266470953467156],[-120.92287799355779,44.265847806650747],[-120.92283386741272,44.265077244432199],[-120.92289477588392,44.264637201775415],[-120.92304179057007,44.263753072354874],[-120.92312906908644,44.263498072226291],[-120.92324262512152,44.263275060074058],[-120.92334276571611,44.26294376813447],[-120.92367070559206,44.262391538700271],[-120.9239462835684,44.261658294939643],[-120.92398195477,44.261289819058277],[-120.92412013003376,44.260923204639369],[-120.92415653785392,44.260667278038255],[-120.9240882533159,44.260004312916195],[-120.92395818175433,44.259673337735649],[-120.92366057978217,44.259163758413173],[-120.92317265983561,44.258722743753751],[-120.92215872598452,44.258056088814179],[-120.92028652104976,44.256950658573757],[-120.91746541759552,44.255337240886284],[-120.91337230239391,44.25263816615513],[-120.91141174725264,44.251114815271016],[-120.90982429748315,44.249541305715368],[-120.90823050650606,44.248149361318816],[-120.90641834226992,44.247571058299663],[-120.90471640581075,44.247449005198966],[-120.90288494306735,44.247415403277543],[-120.90086240776472,44.247423688252688],[-120.89940987237449,44.247396991002027],[-120.89822288437213,44.247011754014679],[-120.89685616414268,44.246350639449233],[-120.89619870335592,44.245293739424511],[-120.8959379736329,44.243744455696394],[-120.89557846875451,44.241421113247718],[-120.89537766205085,44.239077979572599],[-120.89510888072796,44.237755675384648],[-120.89493076636664,44.23566279733641],[-120.89476399233756,44.233252149332102],[-120.89481254897359,44.231890262841183],[-120.89504403404253,44.230713450880565],[-120.89559765407405,44.229360870699544],[-120.8963940752521,44.228285312219526],[-120.89723572390979,44.22593865053971],[-120.89721461709388,44.224757184423709],[-120.89695715993344,44.223117108848896],[-120.89736658059891,44.221375739405858],[-120.89823890313028,44.219938156427624],[-120.89948669090771,44.218598319409949],[-120.9007279712892,44.21744005608776],[-120.90162686149509,44.216769147546515],[-120.89864006288839,44.217118957809774],[-120.89636486203908,44.217483830111725],[-120.89384119706361,44.218018397095221],[-120.89228017932302,44.218744987157727],[-120.89012695980782,44.22021599656712],[-120.88828623992545,44.221983272204284],[-120.88731246166587,44.223041480634251],[-120.88623979775815,44.22355239842075],[-120.88508616689727,44.223379407877779],[-120.88387913029437,44.223209109666271],[-120.88334698538806,44.223402621720062],[-120.88268955065242,44.223710023371893],[-120.88199694328017,44.223871502036957],[-120.88130953805171,44.2238878114605],[-120.88066875538652,44.223730660143339],[-120.88019260067522,44.223489403813829],[-120.87992248625241,44.223135757257289],[-120.87978287817582,44.222523057258378],[-120.87980684612589,44.221855283225459],[-120.8793913995615,44.221055335342292],[-120.87934658620526,44.220992206088042],[-120.87934357056083,44.220977493730324],[-120.87912011553222,44.220558865643348],[-120.87893074078887,44.220298088199051],[-120.87870062115915,44.220065136244941],[-120.87844551039827,44.219974643428955],[-120.87815119446341,44.219869130105408],[-120.87785585355081,44.219731674017133],[-120.87779935041775,44.219705375586827],[-120.87738741267286,44.219554795939835],[-120.87691640979972,44.219388824588172],[-120.87642452199456,44.219251046765521],[-120.87571211755005,44.219166335330137],[-120.87503686742571,44.219153769597064],[-120.87464542564234,44.219183974864571],[-120.87441862798256,44.219213724948801],[-120.87401730742602,44.21932059271559],[-120.87366051276483,44.219344193794669],[-120.87280511898499,44.219762493813121],[-120.87199083929906,44.219994915191521],[-120.87132819702974,44.220144627813333],[-120.8705127531272,44.220300491466517],[-120.87025752378869,44.22030473597264],[-120.86987460701735,44.2202480818015],[-120.86864967238077,44.220216232838339],[-120.86762848193881,44.220089141327023],[-120.86701548147042,44.21994715408885],[-120.86614634526335,44.21979137705646],[-120.86502309632365,44.219630842595045],[-120.86448637629762,44.219521778107662],[-120.8641296975191,44.219497105175094],[-120.86374561742949,44.219386387805919],[-120.86244329203286,44.219136951545622],[-120.8619956857813,44.218944013908207],[-120.86052312514676,44.218124172548407],[-120.86010159519125,44.217967726275461],[-120.85996066120124,44.217884058551313],[-120.85906639642076,44.217624218893114],[-120.85860659104763,44.217552580456307],[-120.85799480689812,44.217572624496825],[-120.85702608435697,44.217748024528888],[-120.85621145073482,44.217989332070097],[-120.85585464798883,44.218054659951171],[-120.85544672122165,44.218213562138388],[-120.85524307045181,44.218241250582039],[-120.8543776577616,44.218544612242198],[-120.853002466419,44.218923917542547],[-120.85279786792653,44.218956086531833],[-120.85254344797008,44.219045835388805],[-120.85198434731703,44.219359438983254],[-120.85160329634654,44.219617866218378],[-120.85115872550232,44.219987635821802],[-120.85091779105494,44.220244195238735],[-120.85056185967474,44.22043556678512],[-120.85020512699732,44.220541395193045],[-120.84979735114713,44.220587738839207],[-120.84862367078739,44.220588151506497],[-120.84750127973879,44.220684051822815],[-120.84671148812753,44.220799714234815],[-120.84553952444831,44.221074722820987],[-120.84528429241482,44.221078912549871],[-120.84472250310414,44.221014296828251],[-120.84219672798609,44.220993631421941],[-120.8416354453252,44.221086563890246],[-120.84106318165828,44.221372854636286],[-120.84065705331832,44.22171630023503],[-120.84009931361294,44.222268453883451],[-120.83970675881693,44.222882245132965],[-120.83968231565807,44.222994322631479],[-120.83942922251326,44.223453196449249],[-120.83910048403504,44.223883629656456],[-120.83798225128791,44.224740277205377],[-120.83709322907539,44.225533729324468],[-120.8369916125488,44.225594827240791],[-120.83668964745928,44.225656633198078],[-120.83673923266635,44.22599068757053],[-120.83672831184744,44.226395619804379],[-120.83673535194431,44.226438007672357],[-120.83667551246826,44.226926801030253],[-120.83668532476614,44.227144393832596],[-120.83671150436845,44.227400661358324],[-120.83678117141369,44.227926315663524],[-120.83679091454127,44.22808203769852],[-120.83679002610744,44.228107154407908],[-120.83675075894975,44.228376079352209],[-120.83663324942913,44.229019302297139],[-120.83657719006381,44.229124582296834],[-120.83645228291684,44.229620972035903],[-120.8364604818404,44.229802796206314],[-120.83647986838255,44.22983890375626],[-120.83659960213186,44.229969056823151],[-120.83673804419522,44.230073987535242],[-120.83680632873323,44.230152014729818],[-120.83685543603653,44.23026804217411],[-120.83698732399161,44.230551891214006],[-120.83713839277463,44.230797735680007],[-120.83737599177739,44.23110916478813],[-120.83742125518961,44.231155024442231],[-120.83823465632318,44.231820026284147],[-120.83889905479889,44.232132739878288],[-120.83929115594569,44.232200685921001],[-120.83983793620459,44.232295430619175],[-120.84038051144969,44.232389443969765],[-120.8411598143317,44.232433224257399],[-120.84177730008835,44.232536693982709],[-120.84228560460534,44.232654332299226],[-120.84300359297765,44.232816440379608],[-120.84347692069075,44.232991933381825],[-120.84377181514066,44.233146049626221],[-120.84422051284527,44.233546151640425],[-120.8443617558557,44.233728877657711],[-120.84447886652434,44.234208253265301],[-120.84445434880531,44.234365345715538],[-120.84418868104318,44.234760969418282],[-120.84360508333233,44.235375671794088],[-120.84323567542624,44.23566753954178],[-120.84265098177073,44.236076883491918],[-120.84219514066297,44.236582788963453],[-120.84177797921468,44.23711800955963],[-120.84146379703735,44.237555129617427],[-120.84144969169077,44.237940752262425],[-120.84143715390434,44.23828352968679],[-120.84143941137066,44.23840201828483],[-120.84144396133756,44.238640964148239],[-120.8412724909161,44.238980735167054],[-120.84107122427503,44.239591496592524],[-120.84090864358164,44.240231570244248],[-120.84083806833968,44.240530371526475],[-120.84076213554532,44.240701458191566],[-120.84070221072935,44.240898256699268],[-120.84066903684425,44.241536539272452],[-120.84068014002115,44.241611372742661],[-120.8406953547871,44.241713926639385],[-120.8407157016283,44.241761987997755],[-120.84087835149195,44.242146155032046],[-120.84100645125147,44.24244871456203],[-120.84135466340841,44.242712556255718],[-120.8417781741491,44.243092158885332],[-120.84188693138393,44.243380058918241],[-120.8421713739355,44.24375703226864],[-120.84241712604778,44.244104689155954],[-120.84274026622516,44.2445109768707],[-120.84324799851532,44.245306639354226],[-120.84336306372005,44.245966254050273],[-120.8432229660616,44.246535295466714],[-120.84313228652356,44.246645387124723],[-120.84312135402656,44.24668792064012],[-120.84288073219285,44.247038999699974],[-120.84226894534841,44.247710543938069],[-120.84208785397027,44.247921473157049],[-120.84205753403279,44.247956788396188],[-120.84198530589072,44.248179202295312],[-120.84190068369261,44.248439759694946],[-120.84183166972261,44.248695714420371],[-120.84181024759803,44.249281289851801],[-120.84189705809216,44.249625942550793],[-120.84210780914601,44.250387412491541],[-120.84219880309439,44.25061780637747],[-120.84226786108184,44.250890518140388],[-120.84235517463252,44.251235324846284],[-120.84236680242556,44.251278233391815],[-120.84237290468127,44.251422910597263],[-120.84225915910169,44.251771881135717],[-120.84133342454018,44.252681708748177],[-120.84048960914603,44.253962202517627],[-120.84006154843838,44.254449280972466],[-120.83943319935504,44.255018095553417],[-120.83897131617867,44.255680087452497],[-120.83806580808405,44.256675799604118],[-120.83758474407975,44.257454463408912],[-120.83671451102971,44.258554366625241],[-120.83661093527746,44.258795488859967],[-120.83662649319987,44.258926328043742],[-120.83673730128847,44.259085979427155],[-120.83706977406335,44.259371367981885],[-120.83745763067041,44.259833366028239],[-120.83804450363878,44.260911334270929],[-120.83833251429866,44.261299414495312],[-120.83945568777986,44.262401027164834],[-120.84062552784174,44.263854630397582],[-120.84116105490513,44.264733543670665],[-120.84177644129892,44.265420398955619],[-120.8420137169082,44.265762497119439],[-120.84215261980731,44.266416523188617],[-120.84130636997875,44.266799231698975],[-120.83930698156604,44.266948331861961],[-120.83710325427398,44.267150637138087],[-120.83643458610572,44.267225910185608],[-120.83455164271005,44.267723686367205],[-120.83250380186585,44.268242224229873],[-120.83247959137063,44.268244887348445],[-120.83128557225456,44.268376304381881],[-120.83064637601413,44.268449914954537],[-120.82945011649973,44.268527225479602],[-120.82865085484872,44.268626364974871],[-120.827912798113,44.268683788871549],[-120.82739075116878,44.268816777692152],[-120.82680590929127,44.269034321723467],[-120.82643760361803,44.269313154833014],[-120.82598346481772,44.269761855993565],[-120.82537504485892,44.270078990276978],[-120.82451190939797,44.27029122159599],[-120.82355149447658,44.270444425142799],[-120.82263293655583,44.270541248955738],[-120.82189063078879,44.270712887707617],[-120.82140936107029,44.270818044216675],[-120.82094427180665,44.271023551705518],[-120.82093573511651,44.271038315231891],[-120.82092518530179,44.271042073652538],[-120.82077864582446,44.271154374610795],[-120.82073693075762,44.271319827542946],[-120.82076730728895,44.271461082982697],[-120.82079696426973,44.271481309994392],[-120.82094091570075,44.271579493171451],[-120.82114962488396,44.271711360727025],[-120.82147575285798,44.272037298588181],[-120.82160812410666,44.272308381434456],[-120.82167076632638,44.272539770039884],[-120.8215960237998,44.272890339070614],[-120.82138583239637,44.273876144507234],[-120.8212649020911,44.274188231909683],[-120.82108792499699,44.274670788379765],[-120.8209758610636,44.275011660811167],[-120.82102018483806,44.275426978891282],[-120.82100381483863,44.275869722534445],[-120.8208922764197,44.276196313313307],[-120.82080008681368,44.276537564086702],[-120.82126609235887,44.276846592582629],[-120.82185032517862,44.277186458055915],[-120.82252604242693,44.277742446700685],[-120.82323151008079,44.278570550395905],[-120.82371567866274,44.279465892657569],[-120.82392868179301,44.280367274440692],[-120.82388435532363,44.280809229686966],[-120.82384575291925,44.281855064560872],[-120.8238089866713,44.282851098687168],[-120.82357765790923,44.283344274913162],[-120.82355126540618,44.283378799730649],[-120.82315752124073,44.284343156470634],[-120.82311081872741,44.284530122765595],[-120.82299407636803,44.284997477379093],[-120.82301537003354,44.285498108778881],[-120.82328924660074,44.285771429159595],[-120.82368697120121,44.286168346934438],[-120.8241870300822,44.286635224865364],[-120.82424737261479,44.286690523203156],[-120.82464891325859,44.287058497744141],[-120.82501560915082,44.287365618903173],[-120.82512330188203,44.287467750906096],[-120.82532318781251,44.287657318050876],[-120.82575849972113,44.287722776937287],[-120.82615562604359,44.287744631060349],[-120.82664047824348,44.287782969802386],[-120.82667934295591,44.28778972891616],[-120.82938910562059,44.28860159371731],[-120.82953102236749,44.288675122368581],[-120.82997015570929,44.288836930733147],[-120.83035733049505,44.288959385345592],[-120.83055256584733,44.288975883784744],[-120.83126422199521,44.288989403023074],[-120.83192250563876,44.28900190497189],[-120.83354106137159,44.289045416131557],[-120.83452100207403,44.289025640790946],[-120.83505709597432,44.288971863508394],[-120.83606139898724,44.288773498023424],[-120.83681188660989,44.288698979211475],[-120.83830500968131,44.288608338589952],[-120.83961684105026,44.288782660065721],[-120.84065135081291,44.288951728041347],[-120.84068066104399,44.288959081831358],[-120.84085379155208,44.28898109625402],[-120.84154500114578,44.289122795374837],[-120.84211638895528,44.289276515053842],[-120.84252975771643,44.289398663951765],[-120.84271319549404,44.289544175889361],[-120.84293580700462,44.289720763841565],[-120.84312784615112,44.289910189322157],[-120.8439582577829,44.290054501390884],[-120.8445567163235,44.290092730596818],[-120.84481064849474,44.290142054543672],[-120.84566042870239,44.290301012843273],[-120.84639618305607,44.290478480746152],[-120.84595924789176,44.290835457811603],[-120.84516914187013,44.291220729824595],[-120.84440132394901,44.291359127461106],[-120.84430785065047,44.29137597566784],[-120.8437556508554,44.291496699788631],[-120.84316451448269,44.291625933248433],[-120.84221668585677,44.291815960226451],[-120.84173964630489,44.29195631119795],[-120.8411148554484,44.292173172860885],[-120.84032993719752,44.292415587222074],[-120.83931999456125,44.292825242867437],[-120.83821690381656,44.29306162004157],[-120.83737545368652,44.293217189587565],[-120.83644921157688,44.29351406916966],[-120.83560302912196,44.293798165984008],[-120.83397816811411,44.294153238292317],[-120.83229573767299,44.294450028912237],[-120.83082834594458,44.294850922061329],[-120.82998474794275,44.295063565428329],[-120.82975201691053,44.29509668039428],[-120.8293766001735,44.295150092648072],[-120.8302078930526,44.295406562863107],[-120.83158436179951,44.296067410675157],[-120.83246116602584,44.296599512320398],[-120.83284786560282,44.296959373106645],[-120.83320561876641,44.297377060247882],[-120.83363598185612,44.297849719779627],[-120.83377420293392,44.298003361324305],[-120.83425219110671,44.298710498025876],[-120.83481070695652,44.299600660630446],[-120.83588125533173,44.300348877023644],[-120.83688078020565,44.300731776650096],[-120.83861002904275,44.300794855702222],[-120.83999831243227,44.300942447496965],[-120.84192970646282,44.301251939089724],[-120.84290819009784,44.301459270124397],[-120.84388131618051,44.302170105561792],[-120.84517125380935,44.302613083543378],[-120.8456787660123,44.3027261888437],[-120.84636018217273,44.302797556425482],[-120.8479496288971,44.302850015345463],[-120.84873026667564,44.302779188495677],[-120.85178704044971,44.302773686023087],[-120.85262947333663,44.302834537850643],[-120.85457432053687,44.302853070984973],[-120.85487428058664,44.302813689674736],[-120.85603867685791,44.302790531597878],[-120.85642831751913,44.302784339951266],[-120.85708032553212,44.302846086665838],[-120.85773252219136,44.302988861310055],[-120.85854564844045,44.303274196762857],[-120.85945135506273,44.303858357465678],[-120.86205924338428,44.305838332307985],[-120.86252814689459,44.306261243719995],[-120.86372585808648,44.307071406777801],[-120.86536840243069,44.308538085130657],[-120.86656255000584,44.309492200796711],[-120.86739149289217,44.310101874351908],[-120.8694476431527,44.311621228888605],[-120.87138196389445,44.313196795130992],[-120.87255008817415,44.314073836536075],[-120.87286297138759,44.314372260628602],[-120.87305513001003,44.314519884491773],[-120.87542367480053,44.316360051317851],[-120.87558827939824,44.31638111771278],[-120.87611532187375,44.316805053522152],[-120.8763210234974,44.317033952390695],[-120.8766552785298,44.3173057512033],[-120.87742459124753,44.317792704484368],[-120.87773330807471,44.317946987332611],[-120.87978366689664,44.31872780223155],[-120.88044968772974,44.319037258541584],[-120.8810133203834,44.319164753274762],[-120.88388364792193,44.320118252079318],[-120.88500998257463,44.320400193103808],[-120.88572919984223,44.320670090024372],[-120.88649649853714,44.320954376779881],[-120.88690655431148,44.321015979699254],[-120.8872139802596,44.321098190947694],[-120.88849598845944,44.321608051331985],[-120.8890597558604,44.321798528193931],[-120.88936672815929,44.32187172349974],[-120.8900321201717,44.321960537700406],[-120.89044144920899,44.321977100132273],[-120.89049187883244,44.321977044862024],[-120.89082697738287,44.322073673200791],[-120.89166533730828,44.322020289940241],[-120.89187546672797,44.322006908127626],[-120.89186252110642,44.322342908181831],[-120.89146837269909,44.322925177326155],[-120.8909569070106,44.323308762579117],[-120.89022288820208,44.323652503713397],[-120.88949270430147,44.323889119232689],[-120.88836267397971,44.324171931567783],[-120.88758145499118,44.324443321364733],[-120.88693238357084,44.325027130000819],[-120.8868613708493,44.32509100359966],[-120.88588038091466,44.326073287273033],[-120.88561467272835,44.326343994798329],[-120.88538411382248,44.326524635655616],[-120.88498740072501,44.326832396727738],[-120.88388247023063,44.327892292986078],[-120.882559240139,44.328961635598951],[-120.88198610780121,44.329378651642138],[-120.88132485702225,44.329978593490118],[-120.88128761017563,44.330076935283849],[-120.88041097213761,44.330888946631809],[-120.88011837018834,44.33122112903424],[-120.87897396143214,44.332262237730738],[-120.87840171752815,44.332674749737073],[-120.87801851329594,44.333018748912785],[-120.87702954362661,44.333747620775789],[-120.8768186066215,44.333901252532648],[-120.87622053525479,44.334268261671063],[-120.87590010439629,44.334392847290381],[-120.87537949565485,44.334459692077488],[-120.87380435100815,44.334290841247928],[-120.87132860306825,44.334681384113935],[-120.87027752208354,44.334913878259066],[-120.86905659483145,44.335246727300564],[-120.86682552102549,44.336087380762628],[-120.86607061189503,44.336496421324007],[-120.86573657066168,44.33680078257202],[-120.86548798975457,44.337169762134124],[-120.86526888526689,44.337741856539033],[-120.8649399904818,44.338595491179923],[-120.86480744945149,44.339115186336436],[-120.86431364284488,44.340213318686892],[-120.86377650240725,44.341036048684842],[-120.86290918439036,44.34194713026573],[-120.86253050137894,44.342205633683221],[-120.86213043397223,44.342405214680014],[-120.86114932905319,44.34277847944459],[-120.8595070658817,44.34313484809595],[-120.85858417358972,44.34324359533764],[-120.85816372790077,44.343334745223594],[-120.85742318103506,44.343581944568484],[-120.85653858931354,44.344038006028804],[-120.85561903246621,44.344592437284902],[-120.85511999586801,44.345010707332911],[-120.85484536381766,44.345338659702037],[-120.85455299632865,44.345873346877511],[-120.85408096039292,44.346539701099992],[-120.85368748033218,44.346986957259297],[-120.85329261327264,44.347321650189429],[-120.85229402264659,44.348041123379879],[-120.85057419174696,44.349012604543425],[-120.84937027858632,44.349791209215006],[-120.84787775019966,44.351041519519178],[-120.84706783363109,44.351530422999211],[-120.84567817492083,44.352260474056926],[-120.84449401391667,44.353052901702505],[-120.84387451234055,44.353522869178853],[-120.84013839571769,44.356729219949081]]]},"properties":{"huc12":"170703051002","name":"Town of Prineville-Crooked River","tohuc":"170703051006","areasqkm":69.219999999999999,"states":"OR"}}]}